{"type": "FeatureCollection", "features": [ {"type": "Feature", "properties": {"norad_id": 29986, "name": "FENGYUN 1C DEB", "group": "fengyun-1c-debris", "lat": -52.66784385944488, "lon": -129.05737367615785, "alt_km": 803.4600639793607, "timestamp": "2025-12-21T03:56:51.109462+00:00", "meta": {"OBJECT_NAME": "FENGYUN 1C DEB", "OBJECT_ID": "1999-025LL", "EPOCH": "2025-12-20T03:28:56.758368", "MEAN_MOTION": 14.29270045, "ECCENTRICITY": 0.00227586, "INCLINATION": 99.3981, "RA_OF_ASC_NODE": 62.3864, "ARG_OF_PERICENTER": 335.0915, "MEAN_ANOMALY": 56.6183, "EPHEMERIS_TYPE": 0, "CLASSIFICATION_TYPE": "U", "NORAD_CAT_ID": 29986, "ELEMENT_SET_NO": 999, "REV_AT_EPOCH": 97613, "BSTAR": 0.001053979, "MEAN_MOTION_DOT": 2.638e-05, "MEAN_MOTION_DDOT": 0}, "tle": {"line1": "1 29986U 99025LL  25354.14510137  .00002638  00000+0  10540-2 0  9990", "line2": "2 29986  99.3981  62.3864 0022758 335.0915  56.6183 14.29270045976133"}}, "geometry": {"type": "Point", "coordinates": [-129.05737367615785, -52.66784385944488]}}, {"type": "Feature", "properties": {"norad_id": 29987, "name": "FENGYUN 1C DEB", "group": "fengyun-1c-debris", "lat": 73.75374135135378, "lon": 99.64180036988989, "alt_km": 851.3843185353753, "timestamp": "2025-12-21T03:56:51.109471+00:00", "meta": {"OBJECT_NAME": "FENGYUN 1C DEB", "OBJECT_ID": "1999-025LM", "EPOCH": "2025-12-20T15:42:45.506304", "MEAN_MOTION": 14.14606512, "ECCENTRICITY": 0.0078854, "INCLINATION": 98.8982, "RA_OF_ASC_NODE": 246.6123, "ARG_OF_PERICENTER": 210.5956, "MEAN_ANOMALY": 179.2072, "EPHEMERIS_TYPE": 0, "CLASSIFICATION_TYPE": "U", "NORAD_CAT_ID": 29987, "ELEMENT_SET_NO": 999, "REV_AT_EPOCH": 96485, "BSTAR": 0.0015481, "MEAN_MOTION_DOT": 3.021e-05, "MEAN_MOTION_DDOT": 0}, "tle": {"line1": "1 29987U 99025LM  25354.65469336  .00003021  00000+0  15481-2 0  9997", "line2": "2 29987  98.8982 246.6123 0078854 210.5956 179.2072 14.14606512964855"}}, "geometry": {"type": "Point", "coordinates": [99.64180036988989, 73.75374135135378]}}, {"type": "Feature", "properties": {"norad_id": 29988, "name": "FENGYUN 1C DEB", "group": "fengyun-1c-debris", "lat": 45.71910123399109, "lon": -71.62595647800468, "alt_km": 785.9478297297628, "timestamp": "2025-12-21T03:56:51.109481+00:00", "meta": {"OBJECT_NAME": "FENGYUN 1C DEB", "OBJECT_ID": "1999-025LN", "EPOCH": "2025-12-20T18:06:52.337952", "MEAN_MOTION": 14.50470858, "ECCENTRICITY": 0.0120161, "INCLINATION": 98.6957, "RA_OF_ASC_NODE": 98.9219, "ARG_OF_PERICENTER": 353.8528, "MEAN_ANOMALY": 160.6581, "EPHEMERIS_TYPE": 0, "CLASSIFICATION_TYPE": "U", "NORAD_CAT_ID": 29988, "ELEMENT_SET_NO": 999, "REV_AT_EPOCH": 98183, "BSTAR": 0.0008828, "MEAN_MOTION_DOT": 3.737e-05, "MEAN_MOTION_DDOT": 0}, "tle": {"line1": "1 29988U 99025LN  25354.75477243  .00003737  00000+0  88280-3 0  9997", "line2": "2 29988  98.6957  98.9219 0120161 353.8528 160.6581 14.50470858981833"}}, "geometry": {"type": "Point", "coordinates": [-71.62595647800468, 45.71910123399109]}}, {"type": "Feature", "properties": {"norad_id": 29989, "name": "FENGYUN 1C DEB", "group": "fengyun-1c-debris", "lat": 77.21121111018684, "lon": -68.50039250141677, "alt_km": 832.5282552289364, "timestamp": "2025-12-21T03:56:51.109489+00:00", "meta": {"OBJECT_NAME": "FENGYUN 1C DEB", "OBJECT_ID": "1999-025LP", "EPOCH": "2025-12-20T09:38:26.353824", "MEAN_MOTION": 14.15823392, "ECCENTRICITY": 0.01236215, "INCLINATION": 98.6684, "RA_OF_ASC_NODE": 332.985, "ARG_OF_PERICENTER": 173.668, "MEAN_ANOMALY": 342.6212, "EPHEMERIS_TYPE": 0, "CLASSIFICATION_TYPE": "U", "NORAD_CAT_ID": 29989, "ELEMENT_SET_NO": 999, "REV_AT_EPOCH": 97719, "BSTAR": 9.200972e-05, "MEAN_MOTION_DOT": 1.52e-06, "MEAN_MOTION_DDOT": 0}, "tle": {"line1": "1 29989U 99025LP  25354.40169391  .00000152  00000+0  92010-4 0  9997", "line2": "2 29989  98.6684 332.9850 0123621 173.6680 342.6212 14.15823392977197"}}, "geometry": {"type": "Point", "coordinates": [-68.50039250141677, 77.21121111018684]}}, {"type": "Feature", "properties": {"norad_id": 29992, "name": "FENGYUN 1C DEB", "group": "fengyun-1c-debris", "lat": 1.5991778891888146, "lon": 170.31707337644036, "alt_km": 803.1288838414976, "timestamp": "2025-12-21T03:56:51.109499+00:00", "meta": {"OBJECT_NAME": "FENGYUN 1C DEB", "OBJECT_ID": "1999-025LS", "EPOCH": "2025-12-20T12:21:30.353760", "MEAN_MOTION": 14.11614185, "ECCENTRICITY": 0.00892477, "INCLINATION": 98.7302, "RA_OF_ASC_NODE": 349.4393, "ARG_OF_PERICENTER": 145.6545, "MEAN_ANOMALY": 333.0101, "EPHEMERIS_TYPE": 0, "CLASSIFICATION_TYPE": "U", "NORAD_CAT_ID": 29992, "ELEMENT_SET_NO": 999, "REV_AT_EPOCH": 97497, "BSTAR": 9.4401951e-05, "MEAN_MOTION_DOT": 1.36e-06, "MEAN_MOTION_DDOT": 0}, "tle": {"line1": "1 29992U 99025LS  25354.51493465  .00000136  00000+0  94402-4 0  9994", "line2": "2 29992  98.7302 349.4393 0089247 145.6545 333.0101 14.11614185974976"}}, "geometry": {"type": "Point", "coordinates": [170.31707337644036, 1.5991778891888146]}}, {"type": "Feature", "properties": {"norad_id": 29993, "name": "FENGYUN 1C DEB", "group": "fengyun-1c-debris", "lat": 34.96832755555308, "lon": 25.467177248710108, "alt_km": 870.4344195639969, "timestamp": "2025-12-21T03:56:51.109508+00:00", "meta": {"OBJECT_NAME": "FENGYUN 1C DEB", "OBJECT_ID": "1999-025LT", "EPOCH": "2025-12-20T15:50:33.567072", "MEAN_MOTION": 14.08151177, "ECCENTRICITY": 0.0038271, "INCLINATION": 98.7922, "RA_OF_ASC_NODE": 31.1898, "ARG_OF_PERICENTER": 291.8698, "MEAN_ANOMALY": 67.8404, "EPHEMERIS_TYPE": 0, "CLASSIFICATION_TYPE": "U", "NORAD_CAT_ID": 29993, "ELEMENT_SET_NO": 999, "REV_AT_EPOCH": 97281, "BSTAR": 7.1232e-05, "MEAN_MOTION_DOT": 7.9e-07, "MEAN_MOTION_DDOT": 0}, "tle": {"line1": "1 29993U 99025LT  25354.66011073  .00000079  00000+0  71232-4 0  9994", "line2": "2 29993  98.7922  31.1898 0038271 291.8698  67.8404 14.08151177972816"}}, "geometry": {"type": "Point", "coordinates": [25.467177248710108, 34.96832755555308]}}, {"type": "Feature", "properties": {"norad_id": 29994, "name": "FENGYUN 1C DEB", "group": "fengyun-1c-debris", "lat": 19.7379475970986, "lon": -149.64906741253796, "alt_km": 802.796420019461, "timestamp": "2025-12-21T03:56:51.109517+00:00", "meta": {"OBJECT_NAME": "FENGYUN 1C DEB", "OBJECT_ID": "1999-025LU", "EPOCH": "2025-12-20T15:44:02.487840", "MEAN_MOTION": 14.02645123, "ECCENTRICITY": 0.0129823, "INCLINATION": 98.8274, "RA_OF_ASC_NODE": 26.6614, "ARG_OF_PERICENTER": 191.4574, "MEAN_ANOMALY": 280.9294, "EPHEMERIS_TYPE": 0, "CLASSIFICATION_TYPE": "U", "NORAD_CAT_ID": 29994, "ELEMENT_SET_NO": 999, "REV_AT_EPOCH": 96837, "BSTAR": -4.9298e-05, "MEAN_MOTION_DOT": -1.25e-06, "MEAN_MOTION_DDOT": 0}, "tle": {"line1": "1 29994U 99025LU  25354.65558435 -.00000125  00000+0 -49298-4 0  9993", "line2": "2 29994  98.8274  26.6614 0129823 191.4574 280.9294 14.02645123968379"}}, "geometry": {"type": "Point", "coordinates": [-149.64906741253796, 19.7379475970986]}}, {"type": "Feature", "properties": {"norad_id": 29996, "name": "FENGYUN 1C DEB", "group": "fengyun-1c-debris", "lat": -9.09443907873577, "lon": -148.6836677020729, "alt_km": 918.2566908446461, "timestamp": "2025-12-21T03:56:51.109526+00:00", "meta": {"OBJECT_NAME": "FENGYUN 1C DEB", "OBJECT_ID": "1999-025LW", "EPOCH": "2025-12-20T15:41:44.517408", "MEAN_MOTION": 14.09465369, "ECCENTRICITY": 0.0130981, "INCLINATION": 99.3028, "RA_OF_ASC_NODE": 32.2926, "ARG_OF_PERICENTER": 65.869, "MEAN_ANOMALY": 53.1271, "EPHEMERIS_TYPE": 0, "CLASSIFICATION_TYPE": "U", "NORAD_CAT_ID": 29996, "ELEMENT_SET_NO": 999, "REV_AT_EPOCH": 96248, "BSTAR": 0.001226, "MEAN_MOTION_DOT": 2.273e-05, "MEAN_MOTION_DDOT": 0}, "tle": {"line1": "1 29996U 99025LW  25354.65398747  .00002273  00000+0  12260-2 0  9994", "line2": "2 29996  99.3028  32.2926 0130981  65.8690  53.1271 14.09465369962483"}}, "geometry": {"type": "Point", "coordinates": [-148.6836677020729, -9.09443907873577]}}, {"type": "Feature", "properties": {"norad_id": 29997, "name": "FENGYUN 1C DEB", "group": "fengyun-1c-debris", "lat": -57.15788468455667, "lon": 19.399217778209888, "alt_km": 839.4958236500624, "timestamp": "2025-12-21T03:56:51.109535+00:00", "meta": {"OBJECT_NAME": "FENGYUN 1C DEB", "OBJECT_ID": "1999-025LX", "EPOCH": "2025-12-20T20:14:46.353120", "MEAN_MOTION": 14.00896878, "ECCENTRICITY": 0.0080146, "INCLINATION": 98.8822, "RA_OF_ASC_NODE": 5.0675, "ARG_OF_PERICENTER": 304.8083, "MEAN_ANOMALY": 179.6164, "EPHEMERIS_TYPE": 0, "CLASSIFICATION_TYPE": "U", "NORAD_CAT_ID": 29997, "ELEMENT_SET_NO": 999, "REV_AT_EPOCH": 96503, "BSTAR": 0.00065573, "MEAN_MOTION_DOT": 9.64e-06, "MEAN_MOTION_DDOT": 0}, "tle": {"line1": "1 29997U 99025LX  25354.84359205  .00000964  00000+0  65573-3 0  9993", "line2": "2 29997  98.8822   5.0675 0080146 304.8083 179.6164 14.00896878965031"}}, "geometry": {"type": "Point", "coordinates": [19.399217778209888, -57.15788468455667]}}, {"type": "Feature", "properties": {"norad_id": 29998, "name": "FENGYUN 1C DEB", "group": "fengyun-1c-debris", "lat": -48.251041738882485, "lon": 66.70201914164329, "alt_km": 800.4183971892171, "timestamp": "2025-12-21T03:56:51.109557+00:00", "meta": {"OBJECT_NAME": "FENGYUN 1C DEB", "OBJECT_ID": "1999-025LY", "EPOCH": "2025-12-20T18:05:28.819392", "MEAN_MOTION": 14.28576356, "ECCENTRICITY": 0.0005118, "INCLINATION": 99.3057, "RA_OF_ASC_NODE": 55.6783, "ARG_OF_PERICENTER": 273.1461, "MEAN_ANOMALY": 86.9132, "EPHEMERIS_TYPE": 0, "CLASSIFICATION_TYPE": "U", "NORAD_CAT_ID": 29998, "ELEMENT_SET_NO": 999, "REV_AT_EPOCH": 97989, "BSTAR": 0.00061653, "MEAN_MOTION_DOT": 1.497e-05, "MEAN_MOTION_DDOT": 0}, "tle": {"line1": "1 29998U 99025LY  25354.75380578  .00001497  00000+0  61653-3 0  9998", "line2": "2 29998  99.3057  55.6783 0005118 273.1461  86.9132 14.28576356979893"}}, "geometry": {"type": "Point", "coordinates": [66.70201914164329, -48.251041738882485]}}]}